[{"OBJECT_NAME":"CARTOSAT-2A","OBJECT_ID":"2008-021A","EPOCH":"2026-03-10T00:17:01.509792","MEAN_MOTION":14.79100763,"ECCENTRICITY":0.00132764,"INCLINATION":97.7772,"RA_OF_ASC_NODE":121.0502,"ARG_OF_PERICENTER":75.3983,"MEAN_ANOMALY":284.87,"EPHEMERIS_TYPE":0,"CLASSIFICATION_TYPE":"U","NORAD_CAT_ID":32783,"ELEMENT_SET_NO":999,"REV_AT_EPOCH":96414,"BSTAR":9.5052975e-5,"MEAN_MOTION_DOT":6.55e-6,"MEAN_MOTION_DDOT":0},{"OBJECT_NAME":"KUIPER-00157","OBJECT_ID":"2025-228Z","EPOCH":"2026-03-09T22:07:59.403648","MEAN_MOTION":14.79918418,"ECCENTRICITY":0.00010982,"INCLINATION":51.9031,"RA_OF_ASC_NODE":337.1896,"ARG_OF_PERICENTER":65.9787,"MEAN_ANOMALY":294.1291,"EPHEMERIS_TYPE":0,"CLASSIFICATION_TYPE":"U","NORAD_CAT_ID":65970,"ELEMENT_SET_NO":999,"REV_AT_EPOCH":2357,"BSTAR":0.00080626223,"MEAN_MOTION_DOT":5.928e-5,"MEAN_MOTION_DDOT":0}]
